{
    "links": {
        "self": "http://www.neowsapp.com/rest/v1/neo/3546778?api_key=iIulBulltgU6a56xZRHN4H3l9WmuAYTsLGpBGhQ2"
    },
    "id": "3546778",
    "neo_reference_id": "3546778",
    "name": "(2010 ST3)",
    "designation": "2010 ST3",
    "nasa_jpl_url": "http://ssd.jpl.nasa.gov/sbdb.cgi?sstr=3546778",
    "absolute_magnitude_h": 25.1,
    "estimated_diameter": {
        "kilometers": {
            "estimated_diameter_min": 0.0253837029,
            "estimated_diameter_max": 0.0567596853
        },
        "meters": {
            "estimated_diameter_min": 25.3837029364,
            "estimated_diameter_max": 56.7596852866
        },
        "miles": {
            "estimated_diameter_min": 0.0157726969,
            "estimated_diameter_max": 0.0352688224
        },
        "feet": {
            "estimated_diameter_min": 83.279867942,
            "estimated_diameter_max": 186.2194458756
        }
    },
    "is_potentially_hazardous_asteroid": false,
    "close_approach_data": [
        {
            "close_approach_date": "2010-10-21",
            "close_approach_date_full": "2010-Oct-21 05:54",
            "epoch_date_close_approach": 1287640440000,
            "relative_velocity": {
                "kilometers_per_second": "7.0201689296",
                "kilometers_per_hour": "25272.6081465127",
                "miles_per_hour": "15703.4158785928"
            },
            "miss_distance": {
                "astronomical": "0.0448978821",
                "lunar": "17.4652761369",
                "kilometers": "6716627.529671127",
                "miles": "4173518.8182984726"
            },
            "orbiting_body": "Earth"
        }
    ],
    "orbital_data": {
        "orbit_id": "7",
        "orbit_determination_date": "2019-07-19 05:25:25",
        "first_observation_date": "2010-09-15",
        "last_observation_date": "2010-09-18",
        "data_arc_in_days": 3,
        "observations_used": 12,
        "orbit_uncertainty": "9",
        "minimum_orbit_intersection": ".0442008",
        "jupiter_tisserand_invariant": "3.874",
        "epoch_osculation": "2455455.5",
        "eccentricity": ".4624189325665983",
        "semi_major_axis": "1.84494478069887",
        "inclination": "3.64918558734162",
        "ascending_node_longitude": "171.5953119762071",
        "orbital_period": "915.3211239728764",
        "perihelion_distance": ".9918073845637818",
        "perihelion_argument": "239.921642296071",
        "aphelion_distance": "2.698082176833958",
        "perihelion_time": "2455510.576325738740",
        "mean_anomaly": "338.338228249462",
        "mean_motion": ".3933045906746361",
        "equinox": "J2000",
        "orbit_class": {
            "orbit_class_type": "APO",
            "orbit_class_description": "Near-Earth asteroid orbits which cross the Earth’s orbit similar to that of 1862 Apollo",
            "orbit_class_range": "a (semi-major axis) > 1.0 AU; q (perihelion) < 1.017 AU"
        }
    },
    "is_sentry_object": false
}